IRIDIUM 106             
1 41917U 17003A   25229.88150742  .00000108  00000+0  31340-4 0  9991
2 41917  86.3967 215.2190 0002424  99.4434 260.7036 14.34218091449732
IRIDIUM 103             
1 41918U 17003B   25229.38044093  .00000028  00000+0  29204-5 0  9996
2 41918  86.3967 215.3291 0001711  90.1860 269.9532 14.34217560449681
IRIDIUM 109             
1 41919U 17003C   25229.87516453  .00000040  00000+0  71064-5 0  9990
2 41919  86.3968 215.1768 0002213  84.9717 275.1731 14.34217726449741
IRIDIUM 102             
1 41920U 17003D   25229.42484071  .00000070  00000+0  17784-4 0  9994
2 41920  86.3967 215.2950 0002352  85.0977 275.0487 14.34217901449742
IRIDIUM 105             
1 41921U 17003E   25229.88395964  .00000261  00000+0  86035-4 0  9994
2 41921  86.4028 183.5992 0002131  86.3765 273.7674 14.34218302451662
IRIDIUM 104             
1 41922U 17003F   25229.36775547  .00000025  00000+0  20078-5 0  9991
2 41922  86.3968 215.3569 0002023  80.1107 280.0317 14.34217749449724
IRIDIUM 114             
1 41923U 17003G   25229.37409915  .00000050  00000+0  10689-4 0  9990
2 41923  86.3967 215.3384 0002056  91.0659 269.0772 14.34217748449707
IRIDIUM 108             
1 41924U 17003H   25229.89077020  .00000064  00000+0  15920-4 0  9994
2 41924  86.4023 183.4939 0002465  87.4867 272.6611 14.34217869451650
